ONEWEB-0210             
1 48787U 21045W   25132.55811422  .00000193  00000+0  47833-3 0  9997
2 48787  87.9054 339.0246 0001122  70.9111 289.2140 13.15550117191647
ONEWEB-0214             
1 48788U 21045X   25132.56762547  .00000187  00000+0  46139-3 0  9993
2 48788  87.9055 339.0119 0001444  73.5275 286.6014 13.15549492191617
ONEWEB-0221             
1 48789U 21045Y   25132.57395393  .00000124  00000+0  29488-3 0  9995
2 48789  87.9059 339.0377 0001616  93.7469 266.3846 13.15546898191703
ONEWEB-0213             
1 48790U 21045Z   25132.56287129  .00000215  00000+0  53795-3 0  9992
2 48790  87.9056 339.0478 0001443  86.3254 273.8041 13.15549603191765
ONEWEB-0212             
1 48791U 21045AA  25132.53991580  .00000306  00000+0  77847-3 0  9998
2 48791  87.9046 339.0388 0001805  88.9463 271.1874 13.15545664191754
ONEWEB-0227             
1 48792U 21045AB  25132.53909753 -.00000033  00000+0 -12267-3 0  9994
2 48792  87.9054 339.0537 0001623  89.7135 270.4181 13.15549798191703
ONEWEB-0226             
1 48793U 21045AC  25132.53277242 -.00000085  00000+0 -26067-3 0  9996
2 48793  87.9053 339.0592 0001424  80.7689 279.3602 13.15548293191679
ONEWEB-0224             
1 48794U 21045AD  25132.57237962  .00000136  00000+0  32796-3 0  9997
2 48794  87.9062 339.0865 0001879 118.3768 241.7552 13.15549370191600
